NORAD_CAT_ID,OBJECT_NAME,OBJECT_TYPE,EPOCH,MEAN_MOTION,ECCENTRICITY,INCLINATION,RA_OF_ASC_NODE,ARG_OF_PERICENTER,MEAN_ANOMALY,BSTAR,MEAN_MOTION_DOT,MEAN_MOTION_DDOT,TLE_LINE0,TLE_LINE1,TLE_LINE2,SEMIMAJOR_AXIS,PERIOD,APOGEE,PERIGEE,DECAYED
52294.0,STARLINK-3777,PAYLOAD,2022-07-20 22:00:01,15.08874298,0.0001453,53.216,299.7094,81.1921,23.3736,-0.0065983999999999,-0.00103887,0.0,0 STARLINK-3777,1 52294U 22041AK  22201.91668981 -.00103887  00000-0 -65984-2 0  9999,2 52294  53.2160 299.7094 0001453  81.1921  23.3736 15.08874298  1306,6917.776,95.435,540.646,538.635,0.0
52294.0,STARLINK-3777,PAYLOAD,2022-07-21 06:00:00,15.088012099999998,0.0001489,53.2169,298.2156,89.226,26.8479,0.0019657,0.00031101,0.0,0 STARLINK-3777,1 52294U 22041AK  22202.25001157  .00031101  00000-0  19657-2 0  9996,2 52294  53.2169 298.2156 0001489  89.2260  26.8479 15.08801210 15336,6917.999,95.44,540.894,538.8340000000002,0.0
52294.0,STARLINK-3777,PAYLOAD,2022-07-21 14:00:01,15.08812885,0.0001543,53.2161,296.7175,81.7425,45.9582,0.00029711,4.44e-05,0.0,0 STARLINK-3777,1 52294U 22041AK  22202.58335648  .00004440  00000-0  29711-3 0  9996,2 52294  53.2161 296.7175 0001543  81.7425  45.9582 15.08812885  1302,6917.9630000000025,95.439,540.896,538.761,0.0
52294.0,STARLINK-3777,PAYLOAD,2022-07-21 22:00:00,15.08838492,0.0001463,53.2158,295.2203,84.0078,55.1921,-0.0015372,-0.00024668,0.0,0 STARLINK-3777,1 52294U 22041AK  22202.91667824 -.00024668  00000-0 -15372-2 0  9990,2 52294  53.2158 295.2203 0001463  84.0078  55.1921 15.08838492  1307,6917.885,95.438,540.762,538.738,0.0
52294.0,STARLINK-3777,PAYLOAD,2022-07-22 06:00:00,15.08828851,0.0001486,53.2161,293.7231,91.5928,59.1878,0.0015283,0.00024111,0.0,0 STARLINK-3777,1 52294U 22041AK  22203.25001157  .00024111  00000-0  15283-2 0  9991,2 52294  53.2161 293.7231 0001486  91.5928  59.1878 15.08828851  1300,6917.9140000000025,95.438,540.807,538.751,0.0
52294.0,STARLINK-3777,PAYLOAD,2022-07-22 12:00:00,15.0885066,0.0001481,53.2158,292.6023,83.6097,345.8711,-0.00077272,-0.00012568,0.0,0 STARLINK-3777,1 52294U 22041AK  22203.50001157 -.00012568  00000-0 -77272-3 0  9991,2 52294  53.2158 292.6023 0001481  83.6097 345.8711 15.08850660 15520,6917.848000000001,95.437,540.737,538.688,0.0
52294.0,STARLINK-3777,PAYLOAD,2022-07-22 22:00:00,15.0887422,0.0001385999999999,53.2155,290.731,84.9423,89.0389,-0.0024192,-0.00038619,0.0,0 STARLINK-3777,1 52294U 22041AK  22203.91667824 -.00038619  00000-0 -24192-2 0  9992,2 52294  53.2155 290.7310 0001386  84.9423  89.0389 15.08874220  1303,6917.776,95.435,540.6,538.682,0.0
52294.0,STARLINK-3777,PAYLOAD,2022-07-23 08:00:01,15.08865471,0.0001286,53.216,288.8612,91.0285,187.4712,-0.0031842,-0.00050643,0.0,0 STARLINK-3777,1 52294U 22041AK  22204.33334491 -.00050643  00000-0 -31842-2 0  9991,2 52294  53.2160 288.8612 0001286  91.0285 187.4712 15.08865471 15649,6917.803000000001,95.436,540.557,538.778,0.0
52294.0,STARLINK-3777,PAYLOAD,2022-07-23 14:00:01,15.08810942,0.0001239,53.2155,287.7393,80.0941,117.1703,0.00020506,2.975e-05,0.0,0 STARLINK-3777,1 52294U 22041AK  22204.58335648  .00002975  00000-0  20506-3 0  9992,2 52294  53.2155 287.7393 0001239  80.0941 117.1703 15.08810942  1303,6917.969,95.439,540.691,538.977,0.0
52294.0,STARLINK-3777,PAYLOAD,2022-07-23 22:00:00,15.08836693,0.0001133,53.2152,286.2417,83.7815,124.988,-0.0013252,-0.00021314,0.0,0 STARLINK-3777,1 52294U 22041AK  22204.91667824 -.00021314  00000-0 -13252-2 0  9992,2 52294  53.2152 286.2417 0001133  83.7815 124.9880 15.08836693  1307,6917.89,95.438,540.539,538.972,0.0
52294.0,STARLINK-3777,PAYLOAD,2022-07-24 06:00:00,15.08830643,0.0001193999999999,53.2154,284.745,91.1043,129.2369,0.0006316,9.776e-05,0.0,0 STARLINK-3777,1 52294U 22041AK  22205.25001157  .00009776  00000-0  63160-3 0  9991,2 52294  53.2154 284.7450 0001194  91.1043 129.2369 15.08830643 15788,6917.909000000002,95.438,540.6,538.948,0.0
52294.0,STARLINK-3777,PAYLOAD,2022-07-24 14:00:01,15.08818679,0.0001234,53.2153,283.2503,77.2949,154.6358,0.0014755999999999,0.0002326,0.0,0 STARLINK-3777,1 52294U 22041AK  22205.58334491  .00023260  00000-0  14756-2 0  9997,2 52294  53.2153 283.2503 0001234  77.2949 154.6358 15.08818679  1303,6917.946,95.439,540.664,538.957,0.0
52294.0,STARLINK-3777,PAYLOAD,2022-07-24 22:00:00,15.08848968,0.0001189999999999,53.2153,281.7525,81.7158,161.796,-0.0038262,-0.00060683,0.0,0 STARLINK-3777,1 52294U 22041AK  22205.91667824 -.00060683  00000-0 -38262-2 0  9993,2 52294  53.2153 281.7525 0001190  81.7158 161.7960 15.08848968  1305,6917.853,95.437,540.5409999999998,538.895,0.0
52294.0,STARLINK-3777,PAYLOAD,2022-07-25 06:00:00,15.08819787,0.0001299,53.2154,280.2559,87.7701,167.3132,0.00016059,2.267e-05,0.0,0 STARLINK-3777,1 52294U 22041AK  22206.25001157  .00002267  00000-0  16059-3 0  9995,2 52294  53.2154 280.2559 0001299  87.7701 167.3132 15.08819787 15931,6917.941999999999,95.439,540.706,538.909,0.0
52294.0,STARLINK-3777,PAYLOAD,2022-07-25 14:00:01,15.08801692,0.0001345,53.2154,278.7613,75.2092,191.4516,0.0020681,0.00032745,0.0,0 STARLINK-3777,1 52294U 22041AK  22206.58334491  .00032745  00000-0  20681-2 0  9990,2 52294  53.2154 278.7613 0001345  75.2092 191.4516 15.08801692  1307,6917.996999999999,95.44,540.793,538.932,0.0
52294.0,STARLINK-3777,PAYLOAD,2022-07-25 22:00:00,15.088333,0.0001239,53.2155,277.2636,79.7239,198.501,-0.0012,-0.00019331,0.0,0 STARLINK-3777,1 52294U 22041AK  22206.91667824 -.00019331  00000-0 -12000-2 0  9990,2 52294  53.2155 277.2636 0001239  79.7239 198.5010 15.08833300  1309,6917.901,95.438,540.623,538.909,0.0
52294.0,STARLINK-3777,PAYLOAD,2022-07-26 14:00:01,15.08812843,0.0001357,53.2156,274.2724,72.7128,228.6761,0.0023452,0.00037205,0.0,0 STARLINK-3777,1 52294U 22041AK  22207.58334491  .00037205  00000-0  23452-2 0  9996,2 52294  53.2156 274.2724 0001357  72.7128 228.6761 15.08812843  1303,6917.9630000000025,95.439,540.7669999999998,538.89,0.0
52294.0,STARLINK-3777,PAYLOAD,2022-07-26 22:00:00,15.08841021,0.0001250999999999,53.2156,272.7746,78.0408,234.9279,-0.00083513,-0.00013555,0.0,0 STARLINK-3777,1 52294U 22041AK  22207.91667824 -.00013555  00000-0 -83513-3 0  9991,2 52294  53.2156 272.7746 0001251  78.0408 234.9279 15.08841021  1307,6917.877,95.437,540.6080000000002,538.877,0.0
52294.0,STARLINK-3777,PAYLOAD,2022-07-27 14:00:01,15.08823858,0.0001341999999999,53.2156,269.7834,71.0974,265.066,0.0024869,0.00039496,0.0,0 STARLINK-3777,1 52294U 22041AK  22208.58334491  .00039496  00000-0  24869-2 0  9994,2 52294  53.2156 269.7834 0001342  71.0974 265.0660 15.08823858  1300,6917.93,95.439,540.7230000000002,538.866,0.0
52294.0,STARLINK-3777,PAYLOAD,2022-07-27 22:00:00,15.08847449,0.0001231999999999,53.2156,268.2855,77.9914,269.7677,-0.00032166,-5.404e-05,0.0,0 STARLINK-3777,1 52294U 22041AK  22208.91667824 -.00005404  00000-0 -32166-3 0  9994,2 52294  53.2156 268.2855 0001232  77.9914 269.7677 15.08847449  1305,6917.858,95.437,540.575,538.87,0.0
52294.0,STARLINK-3777,PAYLOAD,2022-07-28 14:00:01,15.0883393,0.0001291999999999,53.2153,265.2943,70.2039,300.7761,0.0025923,0.00041203,0.0,0 STARLINK-3777,1 52294U 22041AK  22209.58334491  .00041203  00000-0  25923-2 0  9996,2 52294  53.2153 265.2943 0001292  70.2039 300.7761 15.08833930  1307,6917.899,95.438,540.658,538.87,0.0
52294.0,STARLINK-3777,PAYLOAD,2022-07-28 22:00:00,15.08853346,0.0001181,53.2151,263.7962,78.8017,303.7895,0.00035218,5.324e-05,0.0,0 STARLINK-3777,1 52294U 22041AK  22209.91667824  .00005324  00000-0  35218-3 0  9995,2 52294  53.2151 263.7962 0001181  78.8017 303.7895 15.08853346  1300,6917.84,95.437,540.5219999999998,538.888,0.0
52294.0,STARLINK-3777,PAYLOAD,2022-07-29 00:00:00,15.08837771,0.0001153,53.215,263.4218,80.815,34.6849,0.002616,0.00041589,0.0,0 STARLINK-3777,1 52294U 22041AK  22210.00001157  .00041589  00000-0  26160-2 0  9996,2 52294  53.2150 263.4218 0001153  80.8150  34.6849 15.08837771 16501,6917.887,95.438,540.55,538.955,0.0
52294.0,STARLINK-3777,PAYLOAD,2022-07-29 14:00:01,15.08821699,0.0001324,53.2151,260.805,71.2794,334.5523,0.0017085999999999,0.00026995,0.0,0 STARLINK-3777,1 52294U 22041AK  22210.58334491  .00026995  00000-0  17086-2 0  9990,2 52294  53.2151 260.8050 0001324  71.2794 334.5523 15.08821699  1300,6917.936,95.439,540.717,538.885,0.0
52294.0,STARLINK-3777,PAYLOAD,2022-07-29 22:00:00,15.08826404,0.0001252,53.2156,259.3068,80.8231,336.5993,0.00080436,0.00012532,0.0,0 STARLINK-3777,1 52294U 22041AK  22210.91667824  .00012532  00000-0  80436-3 0  9998,2 52294  53.2156 259.3068 0001252  80.8231 336.5993 15.08826404  1301,6917.922,95.438,540.653,538.9209999999998,0.0
52294.0,STARLINK-3777,PAYLOAD,2022-07-30 06:00:00,15.08854075,0.0001301,53.2164,257.8111,81.1853,347.8124,-0.0019166,-0.00030673,0.0,0 STARLINK-3777,1 52294U 22041AK  22211.25001157 -.00030673  00000-0 -19166-2 0  9996,2 52294  53.2164 257.8111 0001301  81.1853 347.8124 15.08854075 16695,6917.837,95.437,540.602,538.802,0.0
52294.0,STARLINK-3777,PAYLOAD,2022-07-30 14:00:01,15.08816189,0.0001319,53.2159,256.3159,71.3185,9.2829,0.0025863,0.00041086,0.0,0 STARLINK-3777,1 52294U 22041AK  22211.58334491  .00041086  00000-0  25863-2 0  9991,2 52294  53.2159 256.3159 0001319  71.3185   9.2829 15.08816189  1300,6917.953,95.439,540.731,538.906,0.0
52294.0,STARLINK-3777,PAYLOAD,2022-07-30 22:00:00,15.08827903,0.0001233,53.2157,254.8177,81.2363,10.961,0.0013134,0.0002066999999999,0.0,0 STARLINK-3777,1 52294U 22041AK  22211.91667824  .00020670  00000-0  13134-2 0  9991,2 52294  53.2157 254.8177 0001233  81.2363  10.9610 15.08827903  1307,6917.917,95.438,540.635,538.929,0.0
52294.0,STARLINK-3777,PAYLOAD,2022-07-31 14:00:01,15.08821905,0.000132,53.2153,251.8266,70.0455,45.3399,0.0024758,0.00039315,0.0,0 STARLINK-3777,1 52294U 22041AK  22212.58334491  .00039315  00000-0  24758-2 0  9996,2 52294  53.2153 251.8266 0001320  70.0455  45.3399 15.08821905  1306,6917.936,95.439,540.714,538.888,0.0
